BANDWAGON-2 OBJECT D    
1 62380U 24247D   26068.52261193  .00011259  00000+0  40119-3 0  9994
2 62380  44.9954 115.6710 0003488 351.1453   8.9368 15.29076102 67732
STARLINK-34711          
1 64912U 25157J   26068.04733906  .00017619  00000+0  60583-3 0  9994
2 64912  53.1607 348.7835 0001186  85.5411 274.5725 15.30186348 36026
